start=new Date('2022-10-17T00:00:00.000Z').valueOf();
sats=[{"PERIOD":"95.592","OBJECT_NAME":"STARLINK-1589","GP_ID":"215350575","INCLINATION":"53.0530","EPOCH":"2022-10-17T03:54:59.095008","BSTAR":"0.00057236000000","ARG_OF_PERICENTER":"90.5090","RA_OF_ASC_NODE":"81.0747","EPHEMERIS_TYPE":"0","PERIAPSIS":"546.281","OBJECT_TYPE":"PAYLOAD","TLE_LINE2":"2 46158  53.0530  81.0747 0001326  90.5090 269.6051 15.06404546120461","LAUNCH_DATE":"2020-08-18","DECAY_DATE":null,"MEAN_MOTION":"15.06404546","MEAN_MOTION_DOT":"0.00008255","SITE":"AFETR","SEMIMAJOR_AXIS":"6925.335","CLASSIFICATION_TYPE":"U","ELEMENT_SET_NO":"999","NORAD_CAT_ID":"46158","FILE":"3618001","TLE_LINE1":"1 46158U 20057AT  22290.16318397  .00008255  00000-0  57236-3 0  9997","MEAN_ELEMENT_THEORY":"SGP4","APOAPSIS":"548.118","ECCENTRICITY":"0.00013260","COUNTRY_CODE":"US","REV_AT_EPOCH":"12046","CENTER_NAME":"EARTH","TIME_SYSTEM":"UTC","OBJECT_ID":"2020-057AT","RCS_SIZE":"LARGE","REF_FRAME":"TEME","MEAN_ANOMALY":"269.6051","MEAN_MOTION_DDOT":"0.0000000000000"},{"RA_OF_ASC_NODE":"122.6857","EPOCH":"2022-10-16T19:20:08.020896","BSTAR":"-0.00003747200000","ARG_OF_PERICENTER":"93.8028","INCLINATION":"53.0553","PERIOD":"95.592","GP_ID":"215351112","OBJECT_NAME":"STARLINK-1595","MEAN_MOTION":"15.06404538","MEAN_MOTION_DOT":"-0.00000839","LAUNCH_DATE":"2020-08-18","DECAY_DATE":null,"TLE_LINE2":"2 46159  53.0553 122.6857 0001020  93.8028 266.3077 15.06404538119842","EPHEMERIS_TYPE":"0","PERIAPSIS":"546.493","OBJECT_TYPE":"PAYLOAD","ECCENTRICITY":"0.00010200","APOAPSIS":"547.906","MEAN_ELEMENT_THEORY":"SGP4","NORAD_CAT_ID":"46159","ELEMENT_SET_NO":"999","FILE":"3617975","TLE_LINE1":"1 46159U 20057AU  22289.80564839 -.00000839  00000-0 -37472-4 0  9994","SITE":"AFETR","SEMIMAJOR_AXIS":"6925.335","CLASSIFICATION_TYPE":"U","REF_FRAME":"TEME","RCS_SIZE":"LARGE","MEAN_ANOMALY":"266.3077","MEAN_MOTION_DDOT":"0.0000000000000","TIME_SYSTEM":"UTC","OBJECT_ID":"2020-057AU","CENTER_NAME":"EARTH","COUNTRY_CODE":"US","REV_AT_EPOCH":"11984"},{"GP_ID":"215317745","OBJECT_NAME":"STARLINK-1598","PERIOD":"95.593","INCLINATION":"53.0553","BSTAR":"0.00008828800000","ARG_OF_PERICENTER":"97.1016","EPOCH":"2022-10-16T19:06:51.946848","RA_OF_ASC_NODE":"102.7131","PERIAPSIS":"546.266","OBJECT_TYPE":"PAYLOAD","EPHEMERIS_TYPE":"0","TLE_LINE2":"2 46160  53.0553 102.7131 0001395  97.1016 263.0131 15.06393997120121","DECAY_DATE":null,"LAUNCH_DATE":"2020-08-18","MEAN_MOTION_DOT":"0.00001034","MEAN_MOTION":"15.06393997","CLASSIFICATION_TYPE":"U","SEMIMAJOR_AXIS":"6925.367","SITE":"AFETR","TLE_LINE1":"1 46160U 20057AV  22289.79643457  .00001034  00000-0  88288-4 0  9995","FILE":"3617642","NORAD_CAT_ID":"46160","ELEMENT_SET_NO":"999","MEAN_ELEMENT_THEORY":"SGP4","ECCENTRICITY":"0.00013950","APOAPSIS":"548.198","REV_AT_EPOCH":"12012","COUNTRY_CODE":"US","CENTER_NAME":"EARTH","OBJECT_ID":"2020-057AV","TIME_SYSTEM":"UTC","MEAN_MOTION_DDOT":"0.0000000000000","MEAN_ANOMALY":"263.0131","RCS_SIZE":"LARGE","REF_FRAME":"TEME"},{"CENTER_NAME":"EARTH","COUNTRY_CODE":"US","REV_AT_EPOCH":"12071","RCS_SIZE":"LARGE","REF_FRAME":"TEME","MEAN_MOTION_DDOT":"0.0000000000000","MEAN_ANOMALY":"261.8169","TIME_SYSTEM":"UTC","OBJECT_ID":"2020-057AW","ELEMENT_SET_NO":"999","NORAD_CAT_ID":"46161","TLE_LINE1":"1 46161U 20057AW  22289.77432339 -.00000751  00000-0 -31503-4 0  9994","FILE":"3617955","SITE":"AFETR","SEMIMAJOR_AXIS":"6925.361","CLASSIFICATION_TYPE":"U","APOAPSIS":"548.232","ECCENTRICITY":"0.00014530","MEAN_ELEMENT_THEORY":"SGP4","TLE_LINE2":"2 46161  53.0535 102.8099 0001453  98.2985 261.8169 15.06395932120711","EPHEMERIS_TYPE":"0","OBJECT_TYPE":"PAYLOAD","PERIAPSIS":"546.220","MEAN_MOTION":"15.06395932","MEAN_MOTION_DOT":"-0.00000751","LAUNCH_DATE":"2020-08-18","DECAY_DATE":null,"INCLINATION":"53.0535","PERIOD":"95.592","OBJECT_NAME":"STARLINK-1600","GP_ID":"215344090","RA_OF_ASC_NODE":"102.8099","EPOCH":"2022-10-16T18:35:01.540896","BSTAR":"-0.00003150300000","ARG_OF_PERICENTER":"98.2985"},{"MEAN_ELEMENT_THEORY":"SGP4","APOAPSIS":"548.199","ECCENTRICITY":"0.00013770","SEMIMAJOR_AXIS":"6925.380","SITE":"AFETR","CLASSIFICATION_TYPE":"U","NORAD_CAT_ID":"46162","ELEMENT_SET_NO":"999","TLE_LINE1":"1 46162U 20057AX  22289.77801277  .00000412  00000-0  46536-4 0  9990","FILE":"3617955","TIME_SYSTEM":"UTC","OBJECT_ID":"2020-057AX","RCS_SIZE":"LARGE","REF_FRAME":"TEME","MEAN_MOTION_DDOT":"0.0000000000000","MEAN_ANOMALY":"250.2191","COUNTRY_CODE":"US","REV_AT_EPOCH":"12072","CENTER_NAME":"EARTH","EPOCH":"2022-10-16T18:40:20.303328","ARG_OF_PERICENTER":"109.8947","BSTAR":"0.00004653600000","RA_OF_ASC_NODE":"102.8097","PERIOD":"95.593","OBJECT_NAME":"STARLINK-1603","GP_ID":"215344342","INCLINATION":"53.0540","LAUNCH_DATE":"2020-08-18","DECAY_DATE":null,"MEAN_MOTION":"15.06389706","MEAN_MOTION_DOT":"0.00000412","EPHEMERIS_TYPE":"0","PERIAPSIS":"546.291","OBJECT_TYPE":"PAYLOAD","TLE_LINE2":"2 46162  53.0540 102.8097 0001377 109.8947 250.2191 15.06389706120728"},{"MEAN_MOTION_DOT":"-0.00001227","MEAN_MOTION":"15.06389282","DECAY_DATE":null,"LAUNCH_DATE":"2020-08-18","TLE_LINE2":"2 46163  53.0561  82.5077 0001330  91.4056 268.7085 15.06389282120411","PERIAPSIS":"546.325","OBJECT_TYPE":"PAYLOAD","EPHEMERIS_TYPE":"0","RA_OF_ASC_NODE":"82.5077","BSTAR":"-0.00006351900000","ARG_OF_PERICENTER":"91.4056","EPOCH":"2022-10-16T20:13:13.379808","INCLINATION":"53.0561","OBJECT_NAME":"STARLINK-1610","GP_ID":"215351166","PERIOD":"95.593","MEAN_ANOMALY":"268.7085","MEAN_MOTION_DDOT":"0.0000000000000","REF_FRAME":"TEME","RCS_SIZE":"LARGE","OBJECT_ID":"2020-057AY","TIME_SYSTEM":"UTC","CENTER_NAME":"EARTH","REV_AT_EPOCH":"12041","COUNTRY_CODE":"US","APOAPSIS":"548.167","ECCENTRICITY":"0.00013300","MEAN_ELEMENT_THEORY":"SGP4","FILE":"3617978","TLE_LINE1":"1 46163U 20057AY  22289.84251597 -.00001227  00000-0 -63519-4 0  9990","NORAD_CAT_ID":"46163","ELEMENT_SET_NO":"999","CLASSIFICATION_TYPE":"U","SEMIMAJOR_AXIS":"6925.381","SITE":"AFETR"},{"REV_AT_EPOCH":"12101","COUNTRY_CODE":"US","CENTER_NAME":"EARTH","OBJECT_ID":"2020-057AZ","TIME_SYSTEM":"UTC","MEAN_ANOMALY":"269.0137","MEAN_MOTION_DDOT":"0.0000000000000","RCS_SIZE":"LARGE","REF_FRAME":"TEME","CLASSIFICATION_TYPE":"U","SITE":"AFETR","SEMIMAJOR_AXIS":"6925.352","FILE":"3617955","TLE_LINE1":"1 46164U 20057AZ  22289.83882480  .00001269  00000-0  10406-3 0  9991","NORAD_CAT_ID":"46164","ELEMENT_SET_NO":"999","MEAN_ELEMENT_THEORY":"SGP4","APOAPSIS":"548.082","ECCENTRICITY":"0.00012490","OBJECT_TYPE":"PAYLOAD","PERIAPSIS":"546.352","EPHEMERIS_TYPE":"0","TLE_LINE2":"2 46164  53.0540  82.5128 0001249  91.0995 269.0137 15.06398732121012","DECAY_DATE":null,"LAUNCH_DATE":"2020-08-18","MEAN_MOTION_DOT":"0.00001269","MEAN_MOTION":"15.06398732","GP_ID":"215343341","OBJECT_NAME":"STARLINK-1612","PERIOD":"95.592","INCLINATION":"53.0540","BSTAR":"0.00010406000000","ARG_OF_PERICENTER":"91.0995","EPOCH":"2022-10-16T20:07:54.462720","RA_OF_ASC_NODE":"82.5128"},{"RA_OF_ASC_NODE":"111.8078","BSTAR":"0.00084274000000","ARG_OF_PERICENTER":"218.3748","EPOCH":"2022-10-16T19:36:55.090656","INCLINATION":"53.0539","GP_ID":"215343591","OBJECT_NAME":"STARLINK-1613","PERIOD":"94.878","MEAN_MOTION_DOT":"0.00016939","MEAN_MOTION":"15.17734732","DECAY_DATE":null,"LAUNCH_DATE":"2020-08-18","TLE_LINE2":"2 46165  53.0539 111.8078 0002033 218.3748 141.7102 15.17734732119340","OBJECT_TYPE":"PAYLOAD","PERIAPSIS":"511.290","EPHEMERIS_TYPE":"0","ECCENTRICITY":"0.00020330","APOAPSIS":"514.092","MEAN_ELEMENT_THEORY":"SGP4","TLE_LINE1":"1 46165U 20057BA  22289.81730429  .00016939  00000-0  84274-3 0  9999","FILE":"3617955","NORAD_CAT_ID":"46165","ELEMENT_SET_NO":"999","CLASSIFICATION_TYPE":"U","SITE":"AFETR","SEMIMAJOR_AXIS":"6890.826","MEAN_MOTION_DDOT":"0.0000000000000","MEAN_ANOMALY":"141.7102","RCS_SIZE":"LARGE","REF_FRAME":"TEME","OBJECT_ID":"2020-057BA","TIME_SYSTEM":"UTC","CENTER_NAME":"EARTH","REV_AT_EPOCH":"11934","COUNTRY_CODE":"US"},{"SEMIMAJOR_AXIS":"6925.387","SITE":"AFETR","CLASSIFICATION_TYPE":"U","NORAD_CAT_ID":"46166","ELEMENT_SET_NO":"999","TLE_LINE1":"1 46166U 20057BB  22289.75774664 -.00003411  00000-0 -21030-3 0  9996","FILE":"3617955","MEAN_ELEMENT_THEORY":"SGP4","ECCENTRICITY":"0.00014580","APOAPSIS":"548.262","COUNTRY_CODE":"US","REV_AT_EPOCH":"11918","CENTER_NAME":"EARTH","TIME_SYSTEM":"UTC","OBJECT_ID":"2020-057BB","RCS_SIZE":"LARGE","REF_FRAME":"TEME","MEAN_MOTION_DDOT":"0.0000000000000","MEAN_ANOMALY":"246.5111","PERIOD":"95.593","OBJECT_NAME":"STARLINK-1615","GP_ID":"215344841","INCLINATION":"53.0548","EPOCH":"2022-10-16T18:11:09.309696","BSTAR":"-0.00021030000000","ARG_OF_PERICENTER":"113.6031","RA_OF_ASC_NODE":"122.8979","EPHEMERIS_TYPE":"0","PERIAPSIS":"546.243","OBJECT_TYPE":"PAYLOAD","TLE_LINE2":"2 46166  53.0548 122.8979 0001458 113.6031 246.5111 15.06387304119188","LAUNCH_DATE":"2020-08-18","DECAY_DATE":null,"MEAN_MOTION":"15.06387304","MEAN_MOTION_DOT":"-0.00003411"},{"ECCENTRICITY":"0.00013310","APOAPSIS":"548.142","MEAN_ELEMENT_THEORY":"SGP4","FILE":"3617955","TLE_LINE1":"1 46167U 20057BC  22289.77247342  .00000952  00000-0  82813-4 0  9999","ELEMENT_SET_NO":"999","NORAD_CAT_ID":"46167","CLASSIFICATION_TYPE":"U","SITE":"AFETR","SEMIMAJOR_AXIS":"6925.355","MEAN_ANOMALY":"246.3985","MEAN_MOTION_DDOT":"0.0000000000000","RCS_SIZE":"LARGE","REF_FRAME":"TEME","OBJECT_ID":"2020-057BC","TIME_SYSTEM":"UTC","CENTER_NAME":"EARTH","REV_AT_EPOCH":"11918","COUNTRY_CODE":"US","RA_OF_ASC_NODE":"122.8141","ARG_OF_PERICENTER":"113.7143","BSTAR":"0.00008281300000","EPOCH":"2022-10-16T18:32:21.703488","INCLINATION":"53.0538","OBJECT_NAME":"STARLINK-1626","GP_ID":"215345090","PERIOD":"95.592","MEAN_MOTION_DOT":"0.00000952","MEAN_MOTION":"15.06397777","DECAY_DATE":null,"LAUNCH_DATE":"2020-08-18","TLE_LINE2":"2 46167  53.0538 122.8141 0001331 113.7143 246.3985 15.06397777119186","PERIAPSIS":"546.299","OBJECT_TYPE":"PAYLOAD","EPHEMERIS_TYPE":"0"}];
